satname,norad_id,inclination_deg,eccentricity,mean_motion_rev_per_day,perigee_km,apogee_km,l1,l2
STARLINK-1008,44714,53.1551,0.0001078,15.46396829,426.54323272882084,428.0104799562487,1 44714U 19074B   26123.81858208  .00019257  00000+0  39087-3 0  9998,2 44714  53.1551 280.3842 0001078  20.3632 339.7419 15.46396829357342
STARLINK-1012,44718,53.1592,5.64e-05,15.4656981,426.38560144660005,427.1531948883139,1 44718U 19074F   26123.82143339  .00019512  00000+0  39357-3 0  9999,2 44718  53.1592 280.6934 0000564  18.5525 341.5503 15.46569810357331
STARLINK-1017,44723,53.0489,0.0002546,15.28892729,477.37526803304445,480.8669838707792,1 44723U 19074L   26123.79863315  .00054158  00000+0  19021-2 0  9994,2 44723  53.0489 276.2399 0002546 262.7691  97.3018 15.28892729357386
STARLINK-1019,44724,53.0307,0.0011068,16.09486671,240.91777500399348,255.5859493893522,1 44724U 19074M   26124.10118477  .00599611  19698-3  63758-3 0  9995,2 44724  53.0307 213.5402 0011068 346.4662  13.6072 16.09486671358277
STARLINK-1020,44725,53.1605,4.3e-06,15.49868035,417.08254759502597,417.1409867344237,1 44725U 19074N   26123.68958671  .00163821  00000+0  28358-2 0  9995,2 44725  53.1605 306.5317 0000043 303.4345  56.6660 15.49868035356943
STARLINK-1036,44741,53.0438,0.0002857,15.65841301,368.8920963276405,372.74845051367356,1 44741U 19074AE  26123.72036889  .00055293  00000+0  53608-3 0  9996,2 44741  53.0438 279.8714 0002857 192.8797 167.2146 15.65841301357329
STARLINK-1039,44744,53.0595,3.04e-05,15.2621441,486.9325079400842,487.34991685539717,1 44744U 19074AH  26123.70059404  .00045377  00000+0  17330-2 0  9998,2 44744  53.0595 321.3674 0000304 123.2102 236.8925 15.26214410356742
STARLINK-1042,44747,53.0416,0.0002195,15.52589083,407.6801209776868,410.659748722087,1 44747U 19074AL  26123.54386571  .00022473  00000+0  36590-3 0  9993,2 44747  53.0416 191.0234 0002195   8.6068 351.4978 15.52589083358584
STARLINK-1043,44748,53.051,0.0001332,15.57546506,393.85818803246,395.6624878832936,1 44748U 19074AM  26123.84791906  .00043567  00000+0  58422-3 0  9994,2 44748  53.0510 287.6173 0001332 222.9369 137.1538 15.57546506357231
STARLINK-1046,44751,53.0498,0.0003138,15.50769347,412.34704271511873,416.61008824401324,1 44751U 19074AQ  26123.71833338  .00087244  00000+0  14806-2 0  9997,2 44751  53.0498 308.0018 0003138 327.0851  32.9961 15.50769347356936
STARLINK-1047,44752,53.0696,0.0003368,15.33797219,462.1908204902338,466.80001768773127,1 44752U 19074AR  26123.64328986  .00009900  00000+0  30953-3 0  9993,2 44752  53.0696 249.0364 0003368  53.3988 306.7323 15.33797219357777
STARLINK-1048,44753,53.0459,0.0004388,15.6370572,373.99951890767534,379.92779524432535,1 44753U 19074AS  26123.91668980  .00113733  00000+0  11852-2 0  9991,2 44753  53.0459 260.4368 0004388 295.3159   1.3741 15.63705720  6005
STARLINK-1063,44768,53.1575,8.39e-05,15.46341128,426.86929335829427,428.01126922609456,1 44768U 19074BH  26123.83031583  .00043372  00000+0  86852-3 0  9995,2 44768  53.1575 321.3301 0000839 122.1765 237.9324 15.46341128356788
STARLINK-1067,44771,53.0451,0.0004517,15.69348734,357.7167936253836,363.80471385611236,1 44771U 19074BL  26123.83335647  .00144796  00000+0  11964-2 0  9990,2 44771  53.0451 294.3738 0004517 231.2786 234.8352 15.69348734  6008
STARLINK-1068,44772,53.0447,0.0001947,15.70885488,355.05384393924305,357.6762590380922,1 44772U 19074BM  26123.83784522  .00066040  00000+0  51953-3 0  9999,2 44772  53.0447 268.2158 0001947  88.7885 271.3354 15.70885488357493
STARLINK-1114,44927,53.044,0.0003032,15.59984214,385.65132163128965,389.7541268400655,1 44927U 20001P   26123.81743576  .00106854  00000+0  12878-2 0  9995,2 44927  53.0440  62.7478 0003032  24.5426 335.5730 15.59984214348671
STARLINK-1123,44930,53.1465,0.0002326,15.53005719,406.37751561827736,409.53440606365984,1 44930U 20001S   26123.88306888  .00084321  00000+0  13218-2 0  9990,2 44930  53.1465  87.1369 0002326 116.7695 243.3553 15.53005719348341
STARLINK-1094,44941,53.1556,0.0001867,15.49732672,416.2387065972707,418.776200236176,1 44941U 20001AD  26123.83152538  .00078292  00000+0  13809-2 0  9994,2 44941  53.1556  61.5328 0001867 124.3858 235.7328 15.49732672348705
STARLINK-1122,44949,53.159,3.42e-05,15.49520153,417.89636210551,418.3612266858472,1 44949U 20001AM  26123.12742404  .00073606  00000+0  13093-2 0  9990,2 44949  53.1590  65.4341 0000342 121.7941 238.3102 15.49520153348584
STARLINK-1080,44961,53.0486,6.72e-05,15.56580622,397.10651779994987,398.0171717246858,1 44961U 20001AZ  26123.86887884  .00084730  00000+0  11653-2 0  9997,2 44961  53.0486  22.6277 0000672 207.7310 152.3665 15.56580622349243
STARLINK-1090,44968,53.1518,0.0001887,15.46315359,426.23166333183235,428.80011673253193,1 44968U 20001BG  26123.87321256  .00067834  00000+0  13505-2 0  9995,2 44968  53.1518  48.7309 0001887 122.7586 237.3604 15.46315359348880
STARLINK-1132,45044,53.1546,0.0002227,15.50847083,412.73891269016076,415.76424256263454,1 45044U 20006A   26123.63664556  .00088633  00000+0  14999-2 0  9991,2 45044  53.1546 352.1273 0002227  99.5921 260.5341 15.50847083345435
STARLINK-1131,45047,53.1599,0.0001663,15.48006763,421.4266418948364,423.68855291793443,1 45047U 20006D   26123.45138647  .00079399  00000+0  14873-2 0  9991,2 45047  53.1599  25.0412 0001663 133.7870 226.3277 15.48006763344957
STARLINK-1134,45048,53.0297,0.0003529,15.50990349,411.4364065994596,416.2301792321996,1 45048U 20006E   26123.85259006  .00095017  00000+0  15976-2 0  9999,2 45048  53.0297 334.5735 0003529 354.2148   5.8818 15.50990349345686
STARLINK-1156,45054,53.1602,0.0001678,15.32188959,468.13382447728054,470.4318185693837,1 45054U 20006L   26123.86797704  .00032129  00000+0  10269-2 0  9994,2 45054  53.1602  24.5281 0001678 169.9095 190.1941 15.32188959344995
STARLINK-1159,45057,53.0322,0.0009033,16.15842785,224.8934023877573,236.8332223520847,1 45057U 20006P   26122.99126066  .01099394  84064-3  76447-3 0  9992,2 45057  53.0322 316.5649 0009033 275.3636  84.6370 16.15842785345859
STARLINK-1166,45060,53.0485,0.0001724,15.54091685,403.62489754019407,405.9636522437768,1 45060U 20006S   26123.84473552  .00076316  00000+0  11520-2 0  9998,2 45060  53.0485   8.1274 0001724 126.4158 233.7011 15.54091685345211
STARLINK-1169,45061,53.1585,0.000385,15.34951206,458.4323371635437,463.6985230347209,1 45061U 20006T   26123.45123575  .00059870  00000+0  17381-2 0  9990,2 45061  53.1585  25.8337 0003850 136.2168 223.9140 15.34951206344947
STARLINK-1171,45062,53.0438,0.0003353,15.70101962,356.346508851846,360.86416826408276,1 45062U 20006U   26123.88438228  .00067429  00000+0  54777-3 0  9992,2 45062  53.0438 337.8019 0003353 145.7756 214.3477 15.70101962345644
STARLINK-1133,45064,53.1602,0.0001312,15.32151744,468.49530472045353,470.29209677633025,1 45064U 20006W   26122.33337963  .00012225  00000+0  39944-3 0  9990,2 45064  53.1602   8.4688 0001312 168.1836 158.4177 15.32151744  5878
STARLINK-1167,45071,53.1602,0.0003527,15.34415564,460.24423307302277,465.06972914729795,1 45071U 20006AD  26123.63284833  .00064153  00000+0  18925-2 0  9991,2 45071  53.1602   2.0430 0003527 140.1167 220.0095 15.34415564345291
STARLINK-1168,45072,53.1592,0.0001356,15.3226828,468.1180276106652,469.97498377740885,1 45072U 20006AE  26123.69091442  .00052946  00000+0  16759-2 0  9990,2 45072  53.1592   2.3610 0001356 175.5958 184.5056 15.32268280345291
STARLINK-1172,45074,53.1566,0.0003083,15.35349976,457.77300628454213,461.9893282864896,1 45074U 20006AG  26123.67849786  .00059988  00000+0  17196-2 0  9991,2 45074  53.1566   1.4227 0003083 149.2602 210.8582 15.35349976345305
STARLINK-1153,45080,53.1594,0.000378,15.34383873,460.1653177399721,465.337029199115,1 45080U 20006AN  26123.68201693  .00047567  00000+0  14106-2 0  9996,2 45080  53.1594   1.7313 0003780 160.7823 199.3323 15.34383873345306
STARLINK-1151,45081,53.0512,0.0003497,15.72831509,348.4558506603571,353.16207546692294,1 45081U 20006AP  26123.85964896  .00075004  00000+0  54230-3 0  9997,2 45081  53.0512 327.4094 0003497 169.7039 190.4051 15.72831509345781
STARLINK-1185,45087,53.1616,0.0001773,15.42279988,438.17328673481006,440.59077898386295,1 45087U 20006AV  26123.88037845  .00059253  00000+0  13551-2 0  9999,2 45087  53.1616 342.9609 0001773 199.8686 160.2251 15.42279988345583
STARLINK-1183,45088,53.1604,0.0001166,15.32184242,468.4984644231272,470.09528600282647,1 45088U 20006AW  26123.86235600  .00052049  00000+0  16522-2 0  9994,2 45088  53.1604 346.1341 0001166 199.4296 160.6661 15.32184242345530
STARLINK-1152,45096,53.0376,0.0001377,15.44943978,430.6049937830985,432.48037956880853,1 45096U 20006BE  26123.69576538  .00070970  00000+0  14796-2 0  9996,2 45096  53.0376 305.6952 0001377  42.6002 317.5110 15.44943978346074
STARLINK-1184,45098,53.0548,0.0001743,15.12860086,526.2791628759105,528.686461942516,1 45098U 20006BG  26123.67634455  .00025115  00000+0  14236-2 0  9999,2 45098  53.0548 356.5707 0001743 313.3030  46.7816 15.12860086345353
STARLINK-1193,45100,53.0488,0.0004609,15.64675357,371.06044990410646,377.2847288836101,1 45100U 20006BJ  26123.73905598  .00051006  00000+0  51855-3 0  9996,2 45100  53.0488 322.1966 0004609 176.3107 183.7942 15.64675357345840
STARLINK-1143,45179,53.0399,0.0001697,15.77548647,336.248851484831,338.5281008314405,1 45179U 20012B   26123.83335647  .00165827  00000+0  96180-3 0  9999,2 45179  53.0399  57.2579 0001697  43.2192  16.6245 15.77548647  6011
STARLINK-1202,45183,53.154,0.0003077,15.31877664,468.103202765742,472.3176757798701,1 45183U 20012F   26123.47595141  .00050196  00000+0  16094-2 0  9998,2 45183  53.1540 144.6412 0003077  47.9633 312.1630 15.31877664343343
STARLINK-1216,45185,53.1563,0.000294,15.32191054,467.2634401732539,471.2897193581557,1 45185U 20012H   26123.33136762  .00052655  00000+0  16707-2 0  9998,2 45185  53.1563 145.2440 0002940  48.1965 311.9287 15.32191054343266
